     2.10           G: GLONASS NAV DATA                     RINEX VERSION / TYPE
teqc  2015Jun23                         20220112 01:25:44UTCPGM / RUN BY / DATE
Linux 2.4.21-27.ELsmp|Opteron|gcc -static|Linux x86_64|=+   COMMENT
  2021    12    19    1.862645149231D-09                    CORR TO SYSTEM TIME
                                                            END OF HEADER
10 21 12 20  7 15  0.0-7.813144475222D-05-0.000000000000D+00 2.520000000000D+04
    1.537956054688D+04-1.221237182617D-01-0.000000000000D+00 0.000000000000D+00
    2.012501220703D+04-3.732624053955D-01 2.793967723846D-09-7.000000000000D+00
    2.641519042969D+03 3.548520088196D+00-2.793967723846D-09 0.000000000000D+00
19 21 12 20  7 15  0.0-1.713344827294D-04-9.094947017729D-13 2.679000000000D+04
   -2.362991064453D+04-9.627542495728D-01 2.793967723846D-09 0.000000000000D+00
    6.260210449219D+03 3.676509857178D-01 0.000000000000D+00 3.000000000000D+00
   -7.292267089844D+03 3.431269645691D+00 0.000000000000D+00 0.000000000000D+00
 5 21 12 20  7 45  0.0 8.451100438833D-05 9.094947017729D-13 2.700000000000D+04
   -1.191781494141D+04 6.878604888916D-01 1.862645149231D-09 0.000000000000D+00
    1.346421289062D+04-2.383375167847D+00 2.793967723846D-09 1.000000000000D+00
   -1.807432080078D+04-2.230920791626D+00-0.000000000000D+00 0.000000000000D+00
 6 21 12 20  7 45  0.0-2.240203320980D-05-1.818989403546D-12 2.700000000000D+04
   -5.315504394531D+03 1.485843658447D-01 1.862645149231D-09 0.000000000000D+00
    2.493164892578D+04-9.096145629883D-03 2.793967723846D-09-4.000000000000D+00
   -3.008408203125D+02-3.563792228699D+00-2.793967723846D-09 0.000000000000D+00
 7 21 12 20  7 45  0.0-3.905594348907D-05 0.000000000000D+00 2.700000000000D+04
    3.049186035156D+03-3.758268356323D-01 9.313225746155D-10 0.000000000000D+00
    1.981244531250D+04 2.125864982605D+00 9.313225746155D-10 5.000000000000D+00
    1.577372607422D+04-2.607322692871D+00-2.793967723846D-09 0.000000000000D+00
 9 21 12 20  7 45  0.0 2.970173954964D-05 2.728484105319D-12 2.700000000000D+04
    1.551369140625D+03-2.048213005066D+00 0.000000000000D+00 0.000000000000D+00
    1.506624169922D+04-1.920200347900D+00-0.000000000000D+00-2.000000000000D+00
    2.056028369141D+04 1.556299209595D+00-2.793967723846D-09 0.000000000000D+00
10 21 12 20  7 45  0.0-7.813237607479D-05-0.000000000000D+00 2.700000000000D+04
    1.456063818359D+04-8.070592880249D-01 0.000000000000D+00 0.000000000000D+00
    1.892964111328D+04-9.180860519409D-01 2.793967723846D-09-7.000000000000D+00
    8.843266113281D+03 3.297340393066D+00-2.793967723846D-09 0.000000000000D+00
19 21 12 20  7 45  0.0-1.713363453746D-04-9.094947017729D-13 2.700000000000D+04
   -2.454875488281D+04-5.689525604248D-02 1.862645149231D-09 0.000000000000D+00
    6.882113769531D+03 2.801055908203D-01-9.313225746155D-10 3.000000000000D+00
   -9.138823242188D+02 3.609805107117D+00 0.000000000000D+00 0.000000000000D+00
20 21 12 20  7 45  0.0-6.153900176287D-05-9.094947017729D-13 2.850000000000D+04
   -1.254751904297D+04-2.453607559204D+00 2.793967723846D-09 0.000000000000D+00
    1.187325634766D+04 7.969446182251D-01 1.862645149231D-09 2.000000000000D+00
   -1.873683105469D+04 2.149780273438D+00-0.000000000000D+00 0.000000000000D+00
19 21 12 20  8 15  0.0-1.713391393423D-04-9.094947017729D-13 2.880000000000D+04
   -2.386660107422D+04 7.961969375610D-01 1.862645149231D-09 0.000000000000D+00
    7.118179687500D+03-5.657005310059D-02-1.862645149231D-09 3.000000000000D+00
    5.535164062500D+03 3.509290695190D+00 0.000000000000D+00 0.000000000000D+00
 5 21 12 20  8 15  0.0 8.451193571091D-05 9.094947017729D-13 2.880000000000D+04
   -1.093812646484D+04 3.723688125610D-01 1.862645149231D-09 0.000000000000D+00
    8.670640625000D+03-2.901945114136D+00 1.862645149231D-09 1.000000000000D+00
   -2.133837792969D+04-1.372293472290D+00 0.000000000000D+00 0.000000000000D+00
 6 21 12 20  8 15  0.0-2.240575850010D-05-1.818989403546D-12 2.880000000000D+04
   -4.961878417969D+03 2.035589218140D-01 2.793967723846D-09 0.000000000000D+00
    2.411842871094D+04-8.922157287598D-01 2.793967723846D-09-4.000000000000D+00
   -6.621008789062D+03-3.412957191467D+00-1.862645149231D-09 0.000000000000D+00
 7 21 12 20  8 15  0.0-3.905594348907D-05 0.000000000000D+00 2.880000000000D+04
    2.738076171875D+03 2.017974853516D-03 9.313225746155D-10 0.000000000000D+00
    2.305842089844D+04 1.445713043213D+00 9.313225746155D-10 5.000000000000D+00
    1.053111718750D+04-3.180076599121D+00-2.793967723846D-09 0.000000000000D+00
 9 21 12 20  8 15  0.0 2.970639616251D-05 2.728484105319D-12 2.880000000000D+04
   -2.588860351562D+03-2.522021293640D+00 0.000000000000D+00 0.000000000000D+00
    1.171452539062D+04-1.764458656311D+00-9.313225746155D-10-2.000000000000D+00
    2.253322607422D+04 6.215181350708D-01-1.862645149231D-09 0.000000000000D+00
10 21 12 20  8 15  0.0-7.813423871994D-05-0.000000000000D+00 2.880000000000D+04
    1.243662402344D+04-1.554039001465D+00 0.000000000000D+00 0.000000000000D+00
    1.696796582031D+04-1.217603683472D+00 9.313225746155D-10-7.000000000000D+00
    1.435789501953D+04 2.790090560913D+00-2.793967723846D-09 0.000000000000D+00
20 21 12 20  8 15  0.0-6.154086440802D-05-9.094947017729D-13 2.880000000000D+04
   -1.633797851562D+04-1.731085777283D+00 2.793967723846D-09 0.000000000000D+00
    1.345748291016D+04 9.226312637329D-01 9.313225746155D-10 2.000000000000D+00
   -1.419103417969D+04 2.868246078491D+00-0.000000000000D+00 0.000000000000D+00
21 21 12 20  8 15  0.0-2.635996788740D-04-2.728484105319D-12 3.012000000000D+04
    3.041440917969D+03-2.908393859863D+00 1.862645149231D-09 0.000000000000D+00
    1.008770605469D+04 1.301485061646D+00 3.725290298462D-09 4.000000000000D+00
   -2.322385791016D+04 1.817579269409D-01-0.000000000000D+00 0.000000000000D+00
 6 21 12 20  8 45  0.0-2.241041511297D-05-1.818989403546D-12 3.060000000000D+04
   -4.725321777344D+03 2.230262756348D-02 2.793967723846D-09 0.000000000000D+00
    2.176277734375D+04-1.703845977783D+00 1.862645149231D-09-4.000000000000D+00
   -1.242864208984D+04-2.998073577881D+00-9.313225746155D-10 0.000000000000D+00
21 21 12 20  8 45  0.0-2.636052668095D-04-2.728484105319D-12 3.060000000000D+04
   -1.896586425781D+03-2.535731315613D+00 2.793967723846D-09 0.000000000000D+00
    1.276216406250D+04 1.638780593872D+00 2.793967723846D-09 4.000000000000D+00
   -2.200284277344D+04 1.166031837463D+00-0.000000000000D+00 0.000000000000D+00
 7 21 12 20  8 45  0.0-3.905501216650D-05 0.000000000000D+00 3.060000000000D+04
    2.934909179688D+03 1.785745620728D-01 2.793967723846D-09 0.000000000000D+00
    2.491912353516D+04 6.032829284668D-01 1.862645149231D-09 5.000000000000D+00
    4.473212402344D+03-3.507199287415D+00-2.793967723846D-09 0.000000000000D+00
10 21 12 20  8 45  0.0-7.813610136509D-05-0.000000000000D+00 3.060000000000D+04
    8.996807617188D+03-2.249979019165D+00 0.000000000000D+00 0.000000000000D+00
    1.470634130859D+04-1.251885414124D+00 0.000000000000D+00-7.000000000000D+00
    1.875750927734D+04 2.066603660583D+00-2.793967723846D-09 0.000000000000D+00
20 21 12 20  8 45  0.0-6.154272705317D-05-9.094947017729D-13 3.060000000000D+04
   -1.871664404297D+04-9.043788909912D-01 2.793967723846D-09 0.000000000000D+00
    1.503734375000D+04 7.875652313232D-01-0.000000000000D+00 2.000000000000D+00
   -8.544875488281D+03 3.364408493042D+00 0.000000000000D+00 0.000000000000D+00
 8 21 12 20  8 45  0.0-6.261188536882D-05 0.000000000000D+00 3.066000000000D+04
    9.270516113281D+03 1.809101104736D-01 0.000000000000D+00 0.000000000000D+00
    1.494947998047D+04 2.519704818726D+00 0.000000000000D+00 6.000000000000D+00
    1.850914257812D+04-2.133994102478D+00-2.793967723846D-09 0.000000000000D+00
 8 21 12 20  9 15  0.0-6.261188536882D-05 0.000000000000D+00 3.240000000000D+04
    9.859237304688D+03 4.409713745117D-01 9.313225746155D-10 0.000000000000D+00
    1.892379345703D+04 1.862333297729D+00 9.313225746155D-10 6.000000000000D+00
    1.400384130859D+04-2.839645385742D+00-2.793967723846D-09 0.000000000000D+00
 6 21 12 20  9 15  0.0-2.241414040327D-05-1.818989403546D-12 3.240000000000D+04
   -4.997760253906D+03-3.513479232788D-01 3.725290298462D-09 0.000000000000D+00
    1.809152197266D+04-2.338173866272D+00 1.862645149231D-09-4.000000000000D+00
   -1.727477441406D+04-2.351625442505D+00-0.000000000000D+00 0.000000000000D+00
 7 21 12 20  9 15  0.0-3.905501216650D-05-0.000000000000D+00 3.240000000000D+04
    3.235791992188D+03 1.147270202637D-01 2.793967723846D-09 0.000000000000D+00
    2.519841259766D+04-2.919168472290D-01 1.862645149231D-09 5.000000000000D+00
   -1.931376953125D+03-3.562664031982D+00-1.862645149231D-09 0.000000000000D+00
10 21 12 20  9 15  0.0-7.813796401024D-05-0.000000000000D+00 3.240000000000D+04
    4.433133300781D+03-2.785951614380D+00-0.000000000000D+00 0.000000000000D+00
    1.260571386719D+04-1.046652793884D+00-9.313225746155D-10-7.000000000000D+00
    2.170169970703D+04 1.183580398560D+00-2.793967723846D-09 0.000000000000D+00
20 21 12 20  9 15  0.0-6.154458969831D-05-9.094947017729D-13 3.240000000000D+04
   -1.960321923828D+04-9.325408935547D-02 1.862645149231D-09 0.000000000000D+00
    1.613331201172D+04 3.884153366089D-01-9.313225746155D-10 2.000000000000D+00
   -2.236120605469D+03 3.599662780762D+00 0.000000000000D+00 0.000000000000D+00
21 21 12 20  9 15  0.0-2.636108547449D-04-2.728484105319D-12 3.240000000000D+04
   -5.958792968750D+03-1.950116157532D+00 2.793967723846D-09 0.000000000000D+00
    1.585122216797D+04 1.750492095947D+00 1.862645149231D-09 4.000000000000D+00
   -1.908064843750D+04 2.059701919556D+00-0.000000000000D+00 0.000000000000D+00
 8 21 12 20  9 45  0.0-6.261188536882D-05-0.000000000000D+00 3.420000000000D+04
    1.072451611328D+04 4.798879623413D-01 1.862645149231D-09 0.000000000000D+00
    2.156139843750D+04 1.051587104797D+00 9.313225746155D-10 6.000000000000D+00
    8.417714843750D+03-3.327025413513D+00-2.793967723846D-09 0.000000000000D+00
